Satellite_1100_1_1
1 00001U 00000A   23121.00000000  .00000000  00000+0  12222-5 0  9993
2 00001  86.0000   0.0000 0002000  90.0000   0.0000 13.44419049  9994
Satellite_1100_1_2
1 00002U 00000A   23121.00000000  .00000000  00000+0  12222-5 0  9994
2 00002  86.0000   0.0000 0002000  90.0000  36.0000 13.44419049  9994
Satellite_1100_1_3
1 00003U 00000A   23121.00000000  .00000000  00000+0  12222-5 0  9995
2 00003  86.0000   0.0000 0002000  90.0000  72.0000 13.44419049  9995
Satellite_1100_1_4
1 00004U 00000A   23121.00000000  .00000000  00000+0  12222-5 0  9996
2 00004  86.0000   0.0000 0002000  90.0000 108.0000 13.44419049  9996
Satellite_1100_1_5
1 00005U 00000A   23121.00000000  .00000000  00000+0  12222-5 0  9997
2 00005  86.0000   0.0000 0002000  90.0000 144.0000 13.44419049  9997
Satellite_1100_1_6
1 00006U 00000A   23121.00000000  .00000000  00000+0  12222-5 0  9998
2 00006  86.0000   0.0000 0002000  90.0000 180.0000 13.44419049  9998
Satellite_1100_1_7
1 00007U 00000A   23121.00000000  .00000000  00000+0  12222-5 0  9999
2 00007  86.0000   0.0000 0002000  90.0000 216.0000 13.44419049  9999
Satellite_1100_1_8
1 00008U 00000A   23121.00000000  .00000000  00000+0  12222-5 0  9990
2 00008  86.0000   0.0000 0002000  90.0000 252.0000 13.44419049  9990
Satellite_1100_1_9
1 00009U 00000A   23121.00000000  .00000000  00000+0  12222-5 0  9991
2 00009  86.0000   0.0000 0002000  90.0000 288.0000 13.44419049  9990
Satellite_1100_1_10
1 00010U 00000A   23121.00000000  .00000000  00000+0  12222-5 0  9993
2 00010  86.0000   0.0000 0002000  90.0000 324.0000 13.44419049  9993
Satellite_1100_2_1
1 00101U 00000A   23121.00000000  .00000000  00000+0  12222-5 0  9994
2 00101  86.0000  30.0000 0002000  90.0000  30.0000 13.44419049  9991
Satellite_1100_2_2
1 00102U 00000A   23121.00000000  .00000000  00000+0  12222-5 0  9995
2 00102  86.0000  30.0000 0002000  90.0000  66.0000 13.44419049  9991
Satellite_1100_2_3
1 00103U 00000A   23121.00000000  .00000000  00000+0  12222-5 0  9996
2 00103  86.0000  30.0000 0002000  90.0000 102.0000 13.44419049  9993
Satellite_1100_2_4
1 00104U 00000A   23121.00000000  .00000000  00000+0  12222-5 0  9997
2 00104  86.0000  30.0000 0002000  90.0000 138.0000 13.44419049  9993
Satellite_1100_2_5
1 00105U 00000A   23121.00000000  .00000000  00000+0  12222-5 0  9998
2 00105  86.0000  30.0000 0002000  90.0000 174.0000 13.44419049  9994
Satellite_1100_2_6
1 00106U 00000A   23121.00000000  .00000000  00000+0  12222-5 0  9999
2 00106  86.0000  30.0000 0002000  90.0000 210.0000 13.44419049  9996
Satellite_1100_2_7
1 00107U 00000A   23121.00000000  .00000000  00000+0  12222-5 0  9990
2 00107  86.0000  30.0000 0002000  90.0000 246.0000 13.44419049  9996
Satellite_1100_2_8
1 00108U 00000A   23121.00000000  .00000000  00000+0  12222-5 0  9991
2 00108  86.0000  30.0000 0002000  90.0000 282.0000 13.44419049  9997
Satellite_1100_2_9
1 00109U 00000A   23121.00000000  .00000000  00000+0  12222-5 0  9992
2 00109  86.0000  30.0000 0002000  90.0000 318.0000 13.44419049  9998
Satellite_1100_2_10
1 00110U 00000A   23121.00000000  .00000000  00000+0  12222-5 0  9994
2 00110  86.0000  30.0000 0002000  90.0000 354.0000 13.44419049  9990
Satellite_1100_3_1
1 00201U 00000A   23121.00000000  .00000000  00000+0  12222-5 0  9995
2 00201  86.0000  60.0000 0002000  90.0000  60.0000 13.44419049  9998
Satellite_1100_3_2
1 00202U 00000A   23121.00000000  .00000000  00000+0  12222-5 0  9996
2 00202  86.0000  60.0000 0002000  90.0000  96.0000 13.44419049  9998
Satellite_1100_3_3
1 00203U 00000A   23121.00000000  .00000000  00000+0  12222-5 0  9997
2 00203  86.0000  60.0000 0002000  90.0000 132.0000 13.44419049  9990
Satellite_1100_3_4
1 00204U 00000A   23121.00000000  .00000000  00000+0  12222-5 0  9998
2 00204  86.0000  60.0000 0002000  90.0000 168.0000 13.44419049  9990
Satellite_1100_3_5
1 00205U 00000A   23121.00000000  .00000000  00000+0  12222-5 0  9999
2 00205  86.0000  60.0000 0002000  90.0000 204.0000 13.44419049  9992
Satellite_1100_3_6
1 00206U 00000A   23121.00000000  .00000000  00000+0  12222-5 0  9990
2 00206  86.0000  60.0000 0002000  90.0000 240.0000 13.44419049  9993
Satellite_1100_3_7
1 00207U 00000A   23121.00000000  .00000000  00000+0  12222-5 0  9991
2 00207  86.0000  60.0000 0002000  90.0000 276.0000 13.44419049  9993
Satellite_1100_3_8
1 00208U 00000A   23121.00000000  .00000000  00000+0  12222-5 0  9992
2 00208  86.0000  60.0000 0002000  90.0000 312.0000 13.44419049  9995
Satellite_1100_3_9
1 00209U 00000A   23121.00000000  .00000000  00000+0  12222-5 0  9993
2 00209  86.0000  60.0000 0002000  90.0000 348.0000 13.44419049  9995
Satellite_1100_3_10
1 00210U 00000A   23121.00000000  .00000000  00000+0  12222-5 0  9995
2 00210  86.0000  60.0000 0002000  90.0000 384.0000 13.44419049  9997
Satellite_1100_4_1
1 00301U 00000A   23121.00000000  .00000000  00000+0  12222-5 0  9996
2 00301  86.0000  90.0000 0002000  90.0000  90.0000 13.44419049  9995
Satellite_1100_4_2
1 00302U 00000A   23121.00000000  .00000000  00000+0  12222-5 0  9997
2 00302  86.0000  90.0000 0002000  90.0000 126.0000 13.44419049  9996
Satellite_1100_4_3
1 00303U 00000A   23121.00000000  .00000000  00000+0  12222-5 0  9998
2 00303  86.0000  90.0000 0002000  90.0000 162.0000 13.44419049  9997
Satellite_1100_4_4
1 00304U 00000A   23121.00000000  .00000000  00000+0  12222-5 0  9999
2 00304  86.0000  90.0000 0002000  90.0000 198.0000 13.44419049  9997
Satellite_1100_4_5
1 00305U 00000A   23121.00000000  .00000000  00000+0  12222-5 0  9990
2 00305  86.0000  90.0000 0002000  90.0000 234.0000 13.44419049  9999
Satellite_1100_4_6
1 00306U 00000A   23121.00000000  .00000000  00000+0  12222-5 0  9991
2 00306  86.0000  90.0000 0002000  90.0000 270.0000 13.44419049  9990
Satellite_1100_4_7
1 00307U 00000A   23121.00000000  .00000000  00000+0  12222-5 0  9992
2 00307  86.0000  90.0000 0002000  90.0000 306.0000 13.44419049  9991
Satellite_1100_4_8
1 00308U 00000A   23121.00000000  .00000000  00000+0  12222-5 0  9993
2 00308  86.0000  90.0000 0002000  90.0000 342.0000 13.44419049  9992
Satellite_1100_4_9
1 00309U 00000A   23121.00000000  .00000000  00000+0  12222-5 0  9994
2 00309  86.0000  90.0000 0002000  90.0000 378.0000 13.44419049  9992
Satellite_1100_4_10
1 00310U 00000A   23121.00000000  .00000000  00000+0  12222-5 0  9996
2 00310  86.0000  90.0000 0002000  90.0000 414.0000 13.44419049  9995
Satellite_1100_5_1
1 00401U 00000A   23121.00000000  .00000000  00000+0  12222-5 0  9997
2 00401  86.0000 120.0000 0002000  90.0000 120.0000 13.44419049  9994
Satellite_1100_5_2
1 00402U 00000A   23121.00000000  .00000000  00000+0  12222-5 0  9998
2 00402  86.0000 120.0000 0002000  90.0000 156.0000 13.44419049  9994
Satellite_1100_5_3
1 00403U 00000A   23121.00000000  .00000000  00000+0  12222-5 0  9999
2 00403  86.0000 120.0000 0002000  90.0000 192.0000 13.44419049  9995
Satellite_1100_5_4
1 00404U 00000A   23121.00000000  .00000000  00000+0  12222-5 0  9990
2 00404  86.0000 120.0000 0002000  90.0000 228.0000 13.44419049  9996
Satellite_1100_5_5
1 00405U 00000A   23121.00000000  .00000000  00000+0  12222-5 0  9991
2 00405  86.0000 120.0000 0002000  90.0000 264.0000 13.44419049  9997
Satellite_1100_5_6
1 00406U 00000A   23121.00000000  .00000000  00000+0  12222-5 0  9992
2 00406  86.0000 120.0000 0002000  90.0000 300.0000 13.44419049  9999
Satellite_1100_5_7
1 00407U 00000A   23121.00000000  .00000000  00000+0  12222-5 0  9993
2 00407  86.0000 120.0000 0002000  90.0000 336.0000 13.44419049  9999
Satellite_1100_5_8
1 00408U 00000A   23121.00000000  .00000000  00000+0  12222-5 0  9994
2 00408  86.0000 120.0000 0002000  90.0000 372.0000 13.44419049  9990
Satellite_1100_5_9
1 00409U 00000A   23121.00000000  .00000000  00000+0  12222-5 0  9995
2 00409  86.0000 120.0000 0002000  90.0000 408.0000 13.44419049  9991
Satellite_1100_5_10
1 00410U 00000A   23121.00000000  .00000000  00000+0  12222-5 0  9997
2 00410  86.0000 120.0000 0002000  90.0000 444.0000 13.44419049  9993
Satellite_1100_6_1
1 00501U 00000A   23121.00000000  .00000000  00000+0  12222-5 0  9998
2 00501  86.0000 150.0000 0002000  90.0000 150.0000 13.44419049  9991
Satellite_1100_6_2
1 00502U 00000A   23121.00000000  .00000000  00000+0  12222-5 0  9999
2 00502  86.0000 150.0000 0002000  90.0000 186.0000 13.44419049  9991
Satellite_1100_6_3
1 00503U 00000A   23121.00000000  .00000000  00000+0  12222-5 0  9990
2 00503  86.0000 150.0000 0002000  90.0000 222.0000 13.44419049  9993
Satellite_1100_6_4
1 00504U 00000A   23121.00000000  .00000000  00000+0  12222-5 0  9991
2 00504  86.0000 150.0000 0002000  90.0000 258.0000 13.44419049  9993
Satellite_1100_6_5
1 00505U 00000A   23121.00000000  .00000000  00000+0  12222-5 0  9992
2 00505  86.0000 150.0000 0002000  90.0000 294.0000 13.44419049  9994
Satellite_1100_6_6
1 00506U 00000A   23121.00000000  .00000000  00000+0  12222-5 0  9993
2 00506  86.0000 150.0000 0002000  90.0000 330.0000 13.44419049  9996
Satellite_1100_6_7
1 00507U 00000A   23121.00000000  .00000000  00000+0  12222-5 0  9994
2 00507  86.0000 150.0000 0002000  90.0000 366.0000 13.44419049  9996
Satellite_1100_6_8
1 00508U 00000A   23121.00000000  .00000000  00000+0  12222-5 0  9995
2 00508  86.0000 150.0000 0002000  90.0000 402.0000 13.44419049  9998
Satellite_1100_6_9
1 00509U 00000A   23121.00000000  .00000000  00000+0  12222-5 0  9996
2 00509  86.0000 150.0000 0002000  90.0000 438.0000 13.44419049  9998
Satellite_1100_6_10
1 00510U 00000A   23121.00000000  .00000000  00000+0  12222-5 0  9998
2 00510  86.0000 150.0000 0002000  90.0000 474.0000 13.44419049  9990
